[{"OBJECT_NAME":"GPS BIIF-4","OBJECT_ID":"2013-023A","EPOCH":"2026-03-27T21:57:27.416160","MEAN_MOTION":2.00563931,"ECCENTRICITY":0.01419414,"INCLINATION":54.5687,"RA_OF_ASC_NODE":272.2822,"ARG_OF_PERICENTER":50.2899,"MEAN_ANOMALY":310.9532,"EPHEMERIS_TYPE":0,"CLASSIFICATION_TYPE":"U","NORAD_CAT_ID":39166,"ELEMENT_SET_NO":999,"REV_AT_EPOCH":9425,"BSTAR":0,"MEAN_MOTION_DOT":6.0e-8,"MEAN_MOTION_DDOT":0},{"OBJECT_NAME":"INSAT-3D","OBJECT_ID":"2013-038B","EPOCH":"2026-03-28T14:03:38.703168","MEAN_MOTION":1.00269078,"ECCENTRICITY":0.0001601,"INCLINATION":1.7184,"RA_OF_ASC_NODE":83.5523,"ARG_OF_PERICENTER":245.5865,"MEAN_ANOMALY":197.315,"EPHEMERIS_TYPE":0,"CLASSIFICATION_TYPE":"U","NORAD_CAT_ID":39216,"ELEMENT_SET_NO":999,"REV_AT_EPOCH":4627,"BSTAR":0,"MEAN_MOTION_DOT":-3.57e-6,"MEAN_MOTION_DDOT":0},{"OBJECT_NAME":"GPS BIIF-5","OBJECT_ID":"2014-008A","EPOCH":"2026-03-28T09:54:53.470368","MEAN_MOTION":2.00554546,"ECCENTRICITY":0.0083084,"INCLINATION":53.6397,"RA_OF_ASC_NODE":152.6153,"ARG_OF_PERICENTER":229.1635,"MEAN_ANOMALY":130.1722,"EPHEMERIS_TYPE":0,"CLASSIFICATION_TYPE":"U","NORAD_CAT_ID":39533,"ELEMENT_SET_NO":999,"REV_AT_EPOCH":8806,"BSTAR":0,"MEAN_MOTION_DOT":-2.0e-8,"MEAN_MOTION_DDOT":0},{"OBJECT_NAME":"LUCH 5V","OBJECT_ID":"2014-023A","EPOCH":"2026-03-28T11:48:45.437184","MEAN_MOTION":1.00272193,"ECCENTRICITY":0.00024574,"INCLINATION":4.9349,"RA_OF_ASC_NODE":70.5298,"ARG_OF_PERICENTER":302.4026,"MEAN_ANOMALY":84.9031,"EPHEMERIS_TYPE":0,"CLASSIFICATION_TYPE":"U","NORAD_CAT_ID":39727,"ELEMENT_SET_NO":999,"REV_AT_EPOCH":4355,"BSTAR":0,"MEAN_MOTION_DOT":-2.84e-6,"MEAN_MOTION_DDOT":0},{"OBJECT_NAME":"GPS BIIF-6","OBJECT_ID":"2014-026A","EPOCH":"2026-03-28T04:35:35.006496","MEAN_MOTION":2.00566865,"ECCENTRICITY":0.00395184,"INCLINATION":56.535,"RA_OF_ASC_NODE":334.6726,"ARG_OF_PERICENTER":325.7427,"MEAN_ANOMALY":34.0463,"EPHEMERIS_TYPE":0,"CLASSIFICATION_TYPE":"U","NORAD_CAT_ID":39741,"ELEMENT_SET_NO":999,"REV_AT_EPOCH":8691,"BSTAR":0,"MEAN_MOTION_DOT":-8.4e-7,"MEAN_MOTION_DDOT":0},{"OBJECT_NAME":"GPS BIIF-7","OBJECT_ID":"2014-045A","EPOCH":"2026-03-28T06:43:51.051072","MEAN_MOTION":2.00553048,"ECCENTRICITY":0.00313773,"INCLINATION":55.2986,"RA_OF_ASC_NODE":91.6863,"ARG_OF_PERICENTER":119.9296,"MEAN_ANOMALY":240.4172,"EPHEMERIS_TYPE":0,"CLASSIFICATION_TYPE":"U","NORAD_CAT_ID":40105,"ELEMENT_SET_NO":999,"REV_AT_EPOCH":8445,"BSTAR":0,"MEAN_MOTION_DOT":4.1e-7,"MEAN_MOTION_DDOT":0},{"OBJECT_NAME":"GSAT0201 (GALILEO 5)","OBJECT_ID":"2014-050A","EPOCH":"2026-03-26T22:51:03.025440","MEAN_MOTION":1.85519926,"ECCENTRICITY":0.1661372,"INCLINATION":48.9652,"RA_OF_ASC_NODE":276.8011,"ARG_OF_PERICENTER":176.1891,"MEAN_ANOMALY":185.2559,"EPHEMERIS_TYPE":0,"CLASSIFICATION_TYPE":"U","NORAD_CAT_ID":40128,"ELEMENT_SET_NO":999,"REV_AT_EPOCH":7679,"BSTAR":0,"MEAN_MOTION_DOT":-4.0e-8,"MEAN_MOTION_DDOT":0},{"OBJECT_NAME":"GSAT0202 (GALILEO 6)","OBJECT_ID":"2014-050B","EPOCH":"2026-03-26T03:07:10.740288","MEAN_MOTION":1.85520606,"ECCENTRICITY":0.16622335,"INCLINATION":48.9839,"RA_OF_ASC_NODE":275.9195,"ARG_OF_PERICENTER":176.8927,"MEAN_ANOMALY":184.2876,"EPHEMERIS_TYPE":0,"CLASSIFICATION_TYPE":"U","NORAD_CAT_ID":40129,"ELEMENT_SET_NO":999,"REV_AT_EPOCH":7894,"BSTAR":0,"MEAN_MOTION_DOT":3.0e-8,"MEAN_MOTION_DDOT":0},{"OBJECT_NAME":"GPS BIIF-8","OBJECT_ID":"2014-068A","EPOCH":"2026-03-27T15:47:42.451008","MEAN_MOTION":2.00571381,"ECCENTRICITY":0.0063895,"INCLINATION":56.9354,"RA_OF_ASC_NODE":34.096,"ARG_OF_PERICENTER":68.2397,"MEAN_ANOMALY":292.425,"EPHEMERIS_TYPE":0,"CLASSIFICATION_TYPE":"U","NORAD_CAT_ID":40294,"ELEMENT_SET_NO":999,"REV_AT_EPOCH":8357,"BSTAR":0,"MEAN_MOTION_DOT":-7.0e-7,"MEAN_MOTION_DDOT":0},{"OBJECT_NAME":"GLONASS-K 2","OBJECT_ID":"2014-075A","EPOCH":"2026-03-25T07:16:41.300256","MEAN_MOTION":2.13101287,"ECCENTRICITY":0.00211828,"INCLINATION":63.6158,"RA_OF_ASC_NODE":193.2737,"ARG_OF_PERICENTER":207.3153,"MEAN_ANOMALY":152.5805,"EPHEMERIS_TYPE":0,"CLASSIFICATION_TYPE":"U","NORAD_CAT_ID":40315,"ELEMENT_SET_NO":999,"REV_AT_EPOCH":8806,"BSTAR":0,"MEAN_MOTION_DOT":1.0e-8,"MEAN_MOTION_DDOT":0},{"OBJECT_NAME":"GPS BIIF-9","OBJECT_ID":"2015-013A","EPOCH":"2026-03-27T07:00:33.330816","MEAN_MOTION":2.00556171,"ECCENTRICITY":0.01087923,"INCLINATION":53.181,"RA_OF_ASC_NODE":207.5638,"ARG_OF_PERICENTER":39.9071,"MEAN_ANOMALY":320.8617,"EPHEMERIS_TYPE":0,"CLASSIFICATION_TYPE":"U","NORAD_CAT_ID":40534,"ELEMENT_SET_NO":999,"REV_AT_EPOCH":8018,"BSTAR":0,"MEAN_MOTION_DOT":-2.9e-7,"MEAN_MOTION_DDOT":0},{"OBJECT_NAME":"GSAT0203 (GALILEO 7)","OBJECT_ID":"2015-017A","EPOCH":"2026-03-27T16:15:59.650272","MEAN_MOTION":1.70475469,"ECCENTRICITY":0.0003036,"INCLINATION":56.8123,"RA_OF_ASC_NODE":343.8202,"ARG_OF_PERICENTER":318.8222,"MEAN_ANOMALY":41.1887,"EPHEMERIS_TYPE":0,"CLASSIFICATION_TYPE":"U","NORAD_CAT_ID":40544,"ELEMENT_SET_NO":999,"REV_AT_EPOCH":6781,"BSTAR":0,"MEAN_MOTION_DOT":-9.7e-7,"MEAN_MOTION_DDOT":0},{"OBJECT_NAME":"GSAT0204 (GALILEO 8)","OBJECT_ID":"2015-017B","EPOCH":"2026-03-27T08:19:21.027360","MEAN_MOTION":1.70475336,"ECCENTRICITY":0.00033144,"INCLINATION":56.8192,"RA_OF_ASC_NODE":343.847,"ARG_OF_PERICENTER":290.4029,"MEAN_ANOMALY":69.5952,"EPHEMERIS_TYPE":0,"CLASSIFICATION_TYPE":"U","NORAD_CAT_ID":40545,"ELEMENT_SET_NO":999,"REV_AT_EPOCH":3085,"BSTAR":0,"MEAN_MOTION_DOT":-9.7e-7,"MEAN_MOTION_DDOT":0},{"OBJECT_NAME":"GPS BIIF-10","OBJECT_ID":"2015-033A","EPOCH":"2026-03-27T22:49:04.798272","MEAN_MOTION":2.00560324,"ECCENTRICITY":0.01148602,"INCLINATION":54.0472,"RA_OF_ASC_NODE":270.4335,"ARG_OF_PERICENTER":29.465,"MEAN_ANOMALY":331.1739,"EPHEMERIS_TYPE":0,"CLASSIFICATION_TYPE":"U","NORAD_CAT_ID":40730,"ELEMENT_SET_NO":999,"REV_AT_EPOCH":7836,"BSTAR":0,"MEAN_MOTION_DOT":4.0e-8,"MEAN_MOTION_DDOT":0},{"OBJECT_NAME":"METEOSAT-11 (MSG-4)","OBJECT_ID":"2015-034A","EPOCH":"2026-03-28T13:07:07.396032","MEAN_MOTION":1.00273736,"ECCENTRICITY":0.00017762,"INCLINATION":2.9988,"RA_OF_ASC_NODE":71.5362,"ARG_OF_PERICENTER":284.8455,"MEAN_ANOMALY":35.5843,"EPHEMERIS_TYPE":0,"CLASSIFICATION_TYPE":"U","NORAD_CAT_ID":40732,"ELEMENT_SET_NO":999,"REV_AT_EPOCH":640,"BSTAR":0,"MEAN_MOTION_DOT":4.5e-7,"MEAN_MOTION_DDOT":0},{"OBJECT_NAME":"GSAT0205 (GALILEO 9)","OBJECT_ID":"2015-045A","EPOCH":"2026-03-27T08:44:09.530016","MEAN_MOTION":1.67410754,"ECCENTRICITY":0.0004152,"INCLINATION":54.9729,"RA_OF_ASC_NODE":223.9518,"ARG_OF_PERICENTER":269.7313,"MEAN_ANOMALY":90.1696,"EPHEMERIS_TYPE":0,"CLASSIFICATION_TYPE":"U","NORAD_CAT_ID":40889,"ELEMENT_SET_NO":999,"REV_AT_EPOCH":6559,"BSTAR":0,"MEAN_MOTION_DOT":-1.1e-7,"MEAN_MOTION_DDOT":0},{"OBJECT_NAME":"GSAT0206 (GALILEO 10)","OBJECT_ID":"2015-045B","EPOCH":"2026-03-27T22:07:45.754176","MEAN_MOTION":1.70473776,"ECCENTRICITY":0.0003014,"INCLINATION":54.972,"RA_OF_ASC_NODE":223.8461,"ARG_OF_PERICENTER":48.8202,"MEAN_ANOMALY":311.153,"EPHEMERIS_TYPE":0,"CLASSIFICATION_TYPE":"U","NORAD_CAT_ID":40890,"ELEMENT_SET_NO":999,"REV_AT_EPOCH":6565,"BSTAR":0,"MEAN_MOTION_DOT":-1.6e-7,"MEAN_MOTION_DDOT":0}]
